{
    "links": {
        "self": "http://www.neowsapp.com/rest/v1/neo/54087426?api_key=iIulBulltgU6a56xZRHN4H3l9WmuAYTsLGpBGhQ2"
    },
    "id": "54087426",
    "neo_reference_id": "54087426",
    "name": "(2020 VR)",
    "designation": "2020 VR",
    "nasa_jpl_url": "http://ssd.jpl.nasa.gov/sbdb.cgi?sstr=54087426",
    "absolute_magnitude_h": 24.155,
    "estimated_diameter": {
        "kilometers": {
            "estimated_diameter_min": 0.0392242797,
            "estimated_diameter_max": 0.0877081557
        },
        "meters": {
            "estimated_diameter_min": 39.2242796545,
            "estimated_diameter_max": 87.7081556759
        },
        "miles": {
            "estimated_diameter_min": 0.0243728299,
            "estimated_diameter_max": 0.0544993044
        },
        "feet": {
            "estimated_diameter_min": 128.6885856616,
            "estimated_diameter_max": 287.7564254676
        }
    },
    "is_potentially_hazardous_asteroid": false,
    "close_approach_data": [
        {
            "close_approach_date": "2020-11-01",
            "close_approach_date_full": "2020-Nov-01 06:44",
            "epoch_date_close_approach": 1604213040000,
            "relative_velocity": {
                "kilometers_per_second": "7.7856227006",
                "kilometers_per_hour": "28028.2417221513",
                "miles_per_hour": "17415.6594189667"
            },
            "miss_distance": {
                "astronomical": "0.1284209972",
                "lunar": "49.9557679108",
                "kilometers": "19211507.644395964",
                "miles": "11937477.3020497432"
            },
            "orbiting_body": "Earth"
        }
    ],
    "orbital_data": {
        "orbit_id": "7",
        "orbit_determination_date": "2020-11-21 05:21:10",
        "first_observation_date": "2020-11-04",
        "last_observation_date": "2020-11-21",
        "data_arc_in_days": 17,
        "observations_used": 42,
        "orbit_uncertainty": "7",
        "minimum_orbit_intersection": ".106624",
        "jupiter_tisserand_invariant": "3.723",
        "epoch_osculation": "2459000.5",
        "eccentricity": ".4482685308170668",
        "semi_major_axis": "1.974996457026585",
        "inclination": "8.949854485612221",
        "ascending_node_longitude": "227.2060899856011",
        "orbital_period": "1013.789778578994",
        "perihelion_distance": "1.089667696866365",
        "perihelion_argument": "158.5987428479128",
        "aphelion_distance": "2.860325217186805",
        "perihelion_time": "2459145.951472975619",
        "mean_anomaly": "308.3497157126419",
        "mean_motion": ".3551032054245049",
        "equinox": "J2000",
        "orbit_class": {
            "orbit_class_type": "AMO",
            "orbit_class_description": "Near-Earth asteroid orbits similar to that of 1221 Amor",
            "orbit_class_range": "1.017 AU < q (perihelion) < 1.3 AU"
        }
    },
    "is_sentry_object": false
}